BEIDOU 3 (C01)          
1 36287U 10001A   20325.24027941 -.00000285  00000-0  00000-0 0  9995
2 36287   1.5907  36.2607 0004712 121.7753 128.6158  1.00273341 39761
BEIDOU 5 (C06)          
1 36828U 10036A   20324.20090144 -.00000090  00000-0  00000-0 0  9998
2 36828  54.1635 181.5441 0100118 233.9338 195.1650  1.00268184 37804
BEIDOU 6 (C04)          
1 37210U 10057A   20325.64167100 -.00000117  00000-0  00000-0 0  9993
2 37210   0.7902  43.4605 0006927 181.5359 226.1352  1.00270347 36881
BEIDOU 7 (C07)          
1 37256U 10068A   20325.17665486 -.00000220  00000-0  00000+0 0  9997
2 37256  51.2236 296.4860 0081180 215.9485  89.4857  1.00261838 36392
BEIDOU 8 (C08)          
1 37384U 11013A   20325.23670804 -.00000212  00000-0  00000+0 0  9998
2 37384  59.4880  60.0196 0052704 203.3061 359.2787  1.00262294 35269
BEIDOU 9 (C09)          
1 37763U 11038A   20325.28472766 -.00000043  00000-0  00000-0 0  9991
2 37763  54.4463 183.9427 0072612 223.6624 209.5147  1.00262064 34243
BEIDOU 10 (C10)         
1 37948U 11073A   20325.35481716 -.00000154  00000-0  00000-0 0  9991
2 37948  51.3203 296.0880 0070653 217.2224 128.7042  1.00260744 32992
BEIDOU 11 (C05)         
1 38091U 12008A   20325.55016564  .00000052  00000-0  00000-0 0  9993
2 38091   1.8089  70.4045 0002824 221.9983  24.4555  1.00267619 32078
BEIDOU 12 (C11)         
1 38250U 12018A   20325.21596998 -.00000109  00000-0  00000+0 0  9991
2 38250  56.7507  12.5265 0024527 242.9867 166.5450  1.86234288 58393
BEIDOU 13 (C12)         
1 38251U 12018B   20324.50027384 -.00000107  00000-0  00000+0 0  9999
2 38251  56.6736  11.9108 0015580 244.8298  89.5379  1.86232228 58378
BEIDOU 15 (C14)         
1 38775U 12050B   20325.32063388  .00000050  00000-0  00000-0 0  9998
2 38775  55.1152 131.0372 0012428 325.9089  35.5928  1.86232331 55776
BEIDOU 16 (C02)         
1 38953U 12059A   20325.57341212 -.00000179  00000-0  00000-0 0  9990
2 38953   1.4708  84.5522 0007711 253.5234  12.3573  1.00268402 29641
BEIDOU 17 (C31)         
1 40549U 15019A   20325.37187039 -.00000159  00000-0  00000+0 0  9993
2 40549  52.8241 319.4050 0039970 194.5292 132.9912  1.00253373 20674
BEIDOU 18 (C57)         
1 40748U 15037A   20324.88006620 -.00000109  00000-0  00000-0 0  9991
2 40748  55.9416  11.1112 0002237 314.5184 184.3918  1.86232761 36214
BEIDOU 19 (C58)         
1 40749U 15037B   20325.51806817 -.00000110  00000-0  00000+0 0  9990
2 40749  55.9436  11.0769 0005650 285.1777  58.5092  1.86231778 36219
BEIDOU 20 (C18)         
1 40938U 15053A   20325.35667828 -.00000149  00000-0  00000+0 0  9999
2 40938  52.3859 282.4484 0047601 192.7549 169.0121  1.00283705 18965
BEIDOU IGSO-6 (C13)     
1 41434U 16021A   20324.23172086 -.00000171  00000-0  00000-0 0  9996
2 41434  57.2609  58.8696 0042822 205.9687 332.4100  1.00269318 17061
BEIDOU-2 G7 (C03)       
1 41586U 16037A   20325.27336567 -.00000359  00000-0  00000+0 0  9999
2 41586   1.8144  68.1937 0008237   0.6558 199.8864  1.00274073 16378
BEIDOU-3 M1 (C19)       
1 43001U 17069A   20325.34873760  .00000051  00000-0  00000+0 0  9996
2 43001  55.2722 130.9588 0007083 290.1342 246.7763  1.86231791 20708
BEIDOU-3 M2 (C20)       
1 43002U 17069B   20325.30904941  .00000051  00000-0  00000+0 0  9999
2 43002  55.2743 130.9956 0006260 322.3690 231.6270  1.86231466 20694
BEIDOU-3 M3 (C27)       
1 43107U 18003A   20325.35249656 -.00000111  00000-0  00000+0 0  9992
2 43107  55.3794  12.2689 0003085  40.8607 348.1375  1.86232604 19462
BEIDOU-3 M4 (C28)       
1 43108U 18003B   20325.23660598 -.00000111  00000-0  00000-0 0  9993
2 43108  55.3726  12.2662 0004639 237.1733 119.2984  1.86232708 19453
BEIDOU-3 M5 (C21)       
1 43207U 18018A   20325.15239002  .00000049  00000-0  00000-0 0  9991
2 43207  55.2327 131.0987 0004547 357.1955   2.8024  1.86231633 18846
BEIDOU-3 M6 (C22)       
1 43208U 18018B   20324.68221519  .00000045  00000-0  00000-0 0  9999
2 43208  55.2320 131.1195 0005309 305.5084  54.4419  1.86231636 18832
BEIDOU-3 M7 (C29)       
1 43245U 18029A   20325.51516424 -.00000110  00000-0  00000+0 0  9990
2 43245  55.3199  10.0662 0001394 233.2134 174.9372  1.86232798 18000
BEIDOU-3 M8 (C30)       
1 43246U 18029B   20325.34967366 -.00000110  00000-0  10000-3 0  9992
2 43246  55.3162  10.1042 0003661 324.0883  19.1204  1.86233025 17987
BEIDOU IGSO-7 (C16)     
1 43539U 18057A   20324.42304243 -.00000092  00000-0  00000+0 0  9999
2 43539  55.0463 180.8511 0030918 213.3642 292.1145  1.00278201  8749
BEIDOU-3 M9 (C23)       
1 43581U 18062A   20324.26071527 -.00000017  00000-0  00000-0 0  9998
2 43581  54.4939 251.8141 0005408 280.1770 262.5657  1.86231914 15713
BEIDOU-3 M10 (C24)      
1 43582U 18062B   20325.24789722 -.00000029  00000-0  00000-0 0  9994
2 43582  54.4926 251.7708 0005968 339.0617 236.6506  1.86232357 15732
BEIDOU-3 M11 (C25)      
1 43602U 18067A   20325.04113170 -.00000026  00000-0  00000+0 0  9994
2 43602  54.5671 250.3446 0007214 349.3385 130.3870  1.86231525 15223
BEIDOU-3 M12 (C26)      
1 43603U 18067B   20325.27132771 -.00000028  00000-0  00000+0 0  9990
2 43603  54.5629 250.3026 0004682 336.5538 208.0139  1.86231470 15247
BEIDOU-3 M13 (C32)      
1 43622U 18072A   20325.48333721  .00000052  00000-0  00000-0 0  9995
2 43622  55.1951 130.6637 0003828 287.2617  69.8835  1.86231721 14752
BEIDOU-3 M14 (C33)      
1 43623U 18072B   20325.25420509  .00000050  00000-0  00000+0 0  9999
2 43623  55.1980 130.6643 0002911 336.2884 317.4684  1.86231796 14751
BEIDOU-3 M15 (C34)      
1 43647U 18078A   20325.51239803 -.00000111  00000-0  10000-3 0  9999
2 43647  55.2121  10.2747 0005808 337.1427  24.8512  1.86232878 14272
BEIDOU-3 M16 (C35)      
1 43648U 18078B   20324.88337755 -.00000110  00000-0  10000-3 0  9993
2 43648  55.2061  10.3029 0003703 341.1713 227.9031  1.86231985 14275
BEIDOU-3 G1 (C59)       
1 43683U 18085A   20323.72757785 -.00000283  00000-0  00000-0 0  9998
2 43683   1.4446 247.2609 0004835   3.7118 209.1217  1.00266080  7647
BEIDOU-3 M17 (C36)      
1 43706U 18093A   20325.53293736 -.00000032  00000-0  00000+0 0  9996
2 43706  54.5748 251.6164 0010914 272.8126 267.8593  1.86231872 13634
BEIDOU-3 M18 (C37)      
1 43707U 18093B   20324.31267238 -.00000017  00000-0  00000-0 0  9994
2 43707  54.5733 251.6464 0009804 294.0974 239.1014  1.86232160 13614
BEIDOU-3 IGSO-1 (C38)   
1 44204U 19023A   20324.73965787 -.00000225  00000-0  00000-0 0  9992
2 44204  55.7175  59.2100 0018227 196.1762 180.2296  1.00301981  5955
BEIDOU-2 G8             
1 44231U 19027A   20325.37511184 -.00000253  00000-0  00000-0 0  9996
2 44231   0.6387 304.4832 0008039 272.2602 122.6763  1.00268596  5688
BEIDOU-3 IGSO-2 (C39)   
1 44337U 19035A   20325.60321624 -.00000076  00000-0  00000-0 0  9999
2 44337  55.0661 176.8818 0016841 182.7601  22.8924  1.00293032  5293
BEIDOU-3 M23 (C45)      
1 44542U 19061A   20325.46715904 -.00000031  00000-0  10000-3 0  9993
2 44542  54.7977 251.6463 0009603 320.7839 220.1381  1.86231618  7894
BEIDOU-3 M24 (C46)      
1 44543U 19061B   20325.51643738 -.00000031  00000-0  10000-3 0  9995
2 44543  54.7966 251.6133 0006940 311.4082 173.1351  1.86231918  7904
BEIDOU-3 IGSO-3         
1 44709U 19073A   20325.60889215 -.00000171  00000-0  00000-0 0  9995
2 44709  58.1647 302.3007 0020912 199.2232 245.2616  1.00284923  4058
BEIDOU-3 M21            
1 44793U 19078A   20325.24225618 -.00000111  00000-0  10000-3 0  9992
2 44793  55.0593  10.3737 0005836 345.7645 149.8033  1.86232019  6751
BEIDOU-3 M22            
1 44794U 19078B   20324.16280647 -.00000108  00000-0  10000-3 0  9992
2 44794  55.0327  10.4168 0003773 333.0350  69.3909  1.86232580  6736
BEIDOU-3 M19            
1 44864U 19090A   20325.39414595  .00000051  00000-0  00000-0 0  9993
2 44864  55.1309 130.9095 0013377 260.4217  82.2300  1.86231840  6331
BEIDOU-3 M20            
1 44865U 19090B   20325.54955499  .00000052  00000-0  00000-0 0  9995
2 44865  55.1322 130.9338 0012094 279.2793 257.5035  1.86231871  6324
BEIDOU-3 G2             
1 45344U 20017A   20325.12376598 -.00000149  00000-0  00000-0 0  9998
2 45344   2.7236 331.3579 0001227 239.1852 333.6624  1.00272442  2859
BEIDOU-3 G3             
1 45807U 20040A   20325.63286542 -.00000360  00000-0  00000+0 0  9997
2 45807   2.7661 298.5239 0008205   3.8854  96.1015  1.00272767  1688
